[{"OBJECT_NAME":"GLOBALSTAR M086","OBJECT_ID":"2011-080F","EPOCH":"2026-03-09T22:45:15.558336","MEAN_MOTION":12.62283911,"ECCENTRICITY":0.00012005,"INCLINATION":51.9888,"RA_OF_ASC_NODE":270.5949,"ARG_OF_PERICENTER":151.4075,"MEAN_ANOMALY":356.929,"EPHEMERIS_TYPE":0,"CLASSIFICATION_TYPE":"U","NORAD_CAT_ID":38045,"ELEMENT_SET_NO":999,"REV_AT_EPOCH":65712,"BSTAR":0.00020861954,"MEAN_MOTION_DOT":-6.6e-7,"MEAN_MOTION_DDOT":0},{"OBJECT_NAME":"COSMOS 1827","OBJECT_ID":"1987-026A","EPOCH":"2026-03-09T21:59:23.280288","MEAN_MOTION":12.65014168,"ECCENTRICITY":0.00124037,"INCLINATION":82.5643,"RA_OF_ASC_NODE":255.8086,"ARG_OF_PERICENTER":25.9025,"MEAN_ANOMALY":334.2687,"EPHEMERIS_TYPE":0,"CLASSIFICATION_TYPE":"U","NORAD_CAT_ID":17582,"ELEMENT_SET_NO":999,"REV_AT_EPOCH":80009,"BSTAR":9.8806364e-5,"MEAN_MOTION_DOT":2.9e-7,"MEAN_MOTION_DDOT":0}]
